STARLINK-31670          
1 59490U 24071G   26068.16467411  .00001330  00000+0  57863-4 0  9992
2 59490  42.9994 354.1263 0000412 293.6576  66.4232 15.27554228107995
FLOCK 4G-18             
1 62680U 25009BZ  26068.19114186  .00011766  00000+0  44319-3 0  9995
2 62680  97.4054 150.5008 0004100 335.7331  24.3715 15.27241676121267
